O3B FM5                 
1 39188U 13031A   23023.35684365 -.00000019  00000+0  00000+0 0  9996
2 39188   0.0656   1.2412 0002895 306.4190  52.3078  5.00115360175059
O3B FM4                 
1 39189U 13031B   23021.41383621 -.00000016  00000+0  00000+0 0  9990
2 39189   0.0380 357.8854 0002837 307.8256  54.2582  5.00115850174973
O3B FM2                 
1 39190U 13031C   23024.30387035 -.00000020  00000+0  00000+0 0  9991
2 39190   0.0332 355.4241 0002809 310.7847  53.7592  5.00115134175076
O3B PFM                 
1 39191U 13031D   23023.13069193 -.00000019  00000+0  00000+0 0  9992
2 39191   0.0566   2.0460 0002734 299.6154  58.3063  5.00115851175033
O3B FM3                 
1 40079U 14038A   23021.18652529 -.00000016  00000+0  00000+0 0  9998
2 40079   0.0458 358.6173 0004006 266.2256  95.1073  5.00116641155944
O3B FM7                 
1 40080U 14038B   23024.33095387 -.00000020  00000+0  00000+0 0  9998
2 40080   0.0433 353.7892 0003297 343.7550  22.4353  5.00115582156131
O3B FM6                 
1 40081U 14038C   23022.95813629 -.00000019  00000+0  00000+0 0  9990
2 40081   0.0449 359.5138 0002809 302.5864  57.8671  5.00115273156069
O3B FM8                 
1 40082U 14038D   23024.21131149 -.00000020  00000+0  00000+0 0  9994
2 40082   0.0418   0.4579 0002641 301.8539  57.6565  5.00115707156097
O3B FM10                
1 40348U 14083A   23021.03925495 -.00000015  00000+0  00000+0 0  9995
2 40348   0.0524   5.3463 0002716 294.8726  59.7501  5.00115135147872
O3B FM11                
1 40349U 14083B   23020.65287326 -.00000014  00000+0  00000+0 0  9996
2 40349   0.0540   0.5553 0003154 310.9871  48.4269  5.00115391147854
O3B FM12                
1 40350U 14083C   23020.88000036 -.00000015  00000+0  00000+0 0  9995
2 40350   0.0530   0.8144 0002937 300.0365  59.1163  5.00115246147862
O3B FM9                 
1 40351U 14083D   23019.90722815 -.00000013  00000+0  00000+0 0  9991
2 40351   0.0547 359.5613 0002754 301.2093  59.1993  5.00116065147810
DIAMOND RED             
1 42783U 17036U   23024.32186739  .00023715  00000+0  75509-3 0  9997
2 42783  97.1725  62.7865 0007561 260.3033  99.7355 15.32538014310708
DIAMOND GREEN           
1 42785U 17036W   23024.05387155  .00027786  00000+0  87772-3 0  9991
2 42785  97.1722  62.6098 0007392 263.1657  96.8744 15.32762161310655
DIAMOND BLUE            
1 42786U 17036X   23024.05560665  .00027179  00000+0  86078-3 0  9995
2 42786  97.1724  62.5985 0007447 263.9864  96.0530 15.32682238310652
LEO VANTAGE 1           
1 43113U 18004C   23023.78475241  .00006567  00000+0  52377-3 0  9993
2 43113  99.2413 132.4709 0396422 248.8927 106.9466 14.55015802256268
O3B FM15                
1 43231U 18024A   23020.77272290 -.00000015  00000+0  00000+0 0  9996
2 43231   0.0519   9.1120 0003065 290.4027  60.4510  5.00116214 88991
O3B FM16                
1 43232U 18024B   23022.22539016 -.00000018  00000+0  00000+0 0  9994
2 43232   0.0528  13.5891 0003075 287.8705  58.5053  5.00116012 89054
O3B FM14                
1 43233U 18024C   23023.26462748 -.00000019  00000+0  00000+0 0  9998
2 43233   0.0525  15.1150 0003045 290.9133  53.9378  5.00115423 89105
O3B FM13                
1 43234U 18024D   23023.51806502 -.00000020  00000+0  00000+0 0  9999
2 43234   0.0671 359.1821 0003852 300.5993  60.1745  5.00115121 89127
O3B FM20                
1 44112U 19020A   23023.09142022 -.00000019  00000+0  00000+0 0  9993
2 44112   0.0517   5.3341 0003419 298.8244  55.8034  5.00115491 69564
O3B FM19                
1 44113U 19020B   23020.91949793 -.00000015  00000+0  00000+0 0  9998
2 44113   0.0720  10.8849 0002889 318.1595  30.9347  5.00115035 69442
O3B FM17                
1 44114U 19020C   23024.19813880 -.00000020  00000+0  00000+0 0  9996
2 44114   0.0371  22.7396 0003170 279.2021  58.0214  5.00115696 69615
O3B FM18                
1 44115U 19020D   23023.94472606 -.00000020  00000+0  00000+0 0  9996
2 44115   0.0521   4.9798 0002950 297.1666  57.8191  5.00115849 69598
SALSAT                  
1 46495U 20068K   23020.37026432  .00006526  00000+0  45307-3 0  9998
2 46495  97.7549 327.1702 0014040 261.2160  98.7476 15.05834602126813
